[
    {
        "CCSDS_OMM_VERS": "2.0",
        "COMMENT": "GENERATED VIA SPACE-TRACK.ORG API",
        "CREATION_DATE": "2023-12-22T22:16:32",
        "ORIGINATOR": "18 SPCS",
        "OBJECT_NAME": "OBJECT A",
        "OBJECT_ID": "2015-049A",
        "CENTER_NAME": "EARTH",
        "REF_FRAME": "TEME",
        "TIME_SYSTEM": "UTC",
        "MEAN_ELEMENT_THEORY": "SGP4",
        "EPOCH": "2023-12-22T18:52:11.896320",
        "MEAN_MOTION": "15.31902795",
        "ECCENTRICITY": "0.00089310",
        "INCLINATION": "97.4766",
        "RA_OF_ASC_NODE": "5.1803",
        "ARG_OF_PERICENTER": "215.0130",
        "MEAN_ANOMALY": "145.0525",
        "EPHEMERIS_TYPE": "0",
        "CLASSIFICATION_TYPE": "U",
        "NORAD_CAT_ID": "40899",
        "ELEMENT_SET_NO": "999",
        "REV_AT_EPOCH": "45741",
        "BSTAR": "0.00069300000000",
        "MEAN_MOTION_DOT": "0.00021328",
        "MEAN_MOTION_DDOT": "0.0000000000000",
        "SEMIMAJOR_AXIS": "6848.273",
        "PERIOD": "94.001",
        "APOAPSIS": "476.254",
        "PERIAPSIS": "464.021",
        "OBJECT_TYPE": "UNKNOWN",
        "RCS_SIZE": "MEDIUM",
        "COUNTRY_CODE": "PRC",
        "LAUNCH_DATE": "2015-09-19",
        "SITE": "TSC",
        "DECAY_DATE": null,
        "FILE": "4142558",
        "GP_ID": "245304736",
        "TLE_LINE0": "0 OBJECT A",
        "TLE_LINE1": "1 40899U 15049A   23356.78624880  .00021328  00000-0  69300-3 0  9998",
        "TLE_LINE2": "2 40899  97.4766   5.1803 0008931 215.0130 145.0525 15.31902795457416"
    },
    {
        "CCSDS_OMM_VERS": "2.0",
        "COMMENT": "GENERATED VIA SPACE-TRACK.ORG API",
        "CREATION_DATE": "2023-12-22T22:26:18",
        "ORIGINATOR": "18 SPCS",
        "OBJECT_NAME": "OBJECT G",
        "OBJECT_ID": "2015-049G",
        "CENTER_NAME": "EARTH",
        "REF_FRAME": "TEME",
        "TIME_SYSTEM": "UTC",
        "MEAN_ELEMENT_THEORY": "SGP4",
        "EPOCH": "2023-12-22T18:56:56.414976",
        "MEAN_MOTION": "15.24299252",
        "ECCENTRICITY": "0.00108270",
        "INCLINATION": "97.5257",
        "RA_OF_ASC_NODE": "359.6121",
        "ARG_OF_PERICENTER": "241.9798",
        "MEAN_ANOMALY": "118.0345",
        "EPHEMERIS_TYPE": "0",
        "CLASSIFICATION_TYPE": "U",
        "NORAD_CAT_ID": "40905",
        "ELEMENT_SET_NO": "999",
        "REV_AT_EPOCH": "45665",
        "BSTAR": "0.00045169000000",
        "MEAN_MOTION_DOT": "0.00010989",
        "MEAN_MOTION_DDOT": "0.0000000000000",
        "SEMIMAJOR_AXIS": "6871.027",
        "PERIOD": "94.470",
        "APOAPSIS": "500.332",
        "PERIAPSIS": "485.453",
        "OBJECT_TYPE": "UNKNOWN",
        "RCS_SIZE": "MEDIUM",
        "COUNTRY_CODE": "PRC",
        "LAUNCH_DATE": "2015-09-19",
        "SITE": "TSC",
        "DECAY_DATE": null,
        "FILE": "4142632",
        "GP_ID": "245306299",
        "TLE_LINE0": "0 OBJECT G",
        "TLE_LINE1": "1 40905U 15049G   23356.78954184  .00010989  00000-0  45169-3 0  9997",
        "TLE_LINE2": "2 40905  97.5257 359.6121 0010827 241.9798 118.0345 15.24299252456659"
    }
]